BEIDOU-2 G8             
1 44231U 19027A   22216.63700260 -.00000241  00000+0  00000+0 0  9996
2 44231   0.9734  78.0310 0005401 110.7360 138.2518  1.00269728 11900
YAMAL 601               
1 44307U 19031A   22216.22917366  .00000127  00000+0  00000+0 0  9999
2 44307   0.0161 129.4895 0002126 355.9459 318.8395  1.00273188 11769
AT&T T-16               
1 44333U 19034A   22216.29563392 -.00000107  00000+0  00000+0 0  9993
2 44333   0.0027  62.8241 0000781 329.4493 286.1220  1.00269831 11464
EUTELSAT 7C             
1 44334U 19034B   22216.56993885  .00000056  00000+0  00000+0 0  9990
2 44334   0.0570 249.2746 0003252 227.4403  48.6022  1.00270764 11944
BEIDOU-3 IGSO-2         
1 44337U 19035A   22216.27479905 -.00000101  00000+0  00000+0 0  9996
2 44337  55.1291 171.2973 0025921 194.4289 164.2949  1.00290301 11522
COSMOS 2539             
1 44457U 19048A   22216.56438169  .00000088  00000+0  00000+0 0  9995
2 44457   0.0306 127.3939 0000373 230.9701 169.8962  1.00271942 11069
EDRS-C                  
1 44475U 19049A   22216.04514274  .00000162  00000+0  00000+0 0  9994
2 44475   0.0452 244.0886 0000358 228.1037 247.8110  1.00271680 11031
INTELSAT 39 (IS-39)     
1 44476U 19049B   22216.49285721  .00000041  00000+0  00000+0 0  9992
2 44476   0.0113  78.0307 0000912 278.8951 195.4584  1.00270975 10984
AMOS-17                 
1 44479U 19050A   22216.55882729  .00000117  00000+0  00000+0 0  9999
2 44479   0.0064  47.5359 0002496  95.8014  27.9298  1.00273823 11028
AEHF-5 (USA 292)        
1 44481U 19051A   22216.23030726  .00000094  00000+0  00000+0 0  9994
2 44481   4.2794 304.3955 0005593 184.2063 321.6370  1.00275637 11100
EUTELSAT 5 WEST B       
1 44624U 19067A   22216.54146894 -.00000035  00000+0  00000+0 0  9994
2 44624   0.0808 327.3067 0007135 155.8167  19.8796  1.00271008 10285
MEV-1                   
1 44625U 19067B   22216.42341039 -.00000195  00000+0  00000+0 0  9997
2 44625   0.0509 263.5195 0001120 235.6596 298.7137  1.00270318  8803
TJS-4                   
1 44637U 19070A   22216.44684503 -.00000162  00000+0  00000+0 0  9996
2 44637   0.0786 265.9276 0004756 125.9922 165.4116  1.00270197 10389
BEIDOU-3 IGSO-3         
1 44709U 19073A   22215.82111265 -.00000181  00000+0  10000-3 0  9996
2 44709  57.1890 295.8948 0027447 178.5050 251.6026  1.00294497 10279
TIBA-1                  
1 44800U 19080A   22216.55326992  .00000163  00000+0  00000+0 0  9996
2 44800   0.0517  17.2965 0002067 127.0605  43.3660  1.00271307  9896
INMARSAT GX5            
1 44801U 19080B   22216.56438170  .00000082  00000+0  00000+0 0  9990
2 44801   0.0563 310.4303 0001658 188.0981  28.7662  1.00274307  9949
JCSAT-18 (KACIFIC 1)    
1 44868U 19091A   22215.76993707 -.00000194  00000+0  00000+0 0  9993
2 44868   0.0164 117.1634 0000521  82.9360 179.3692  1.00271998  9847
ELEKTRO-L 3             
1 44903U 19095A   22216.44701865 -.00000090  00000+0  00000+0 0  9990
2 44903   0.0630 145.1835 0001553 351.8135  52.9202  1.00271906  9553
SHIJIAN-20 (SJ-20)      
1 44910U 19097A   22216.55326992  .00000162  00000+0  00000+0 0  9995
2 44910   1.2893  91.5323 0005246  40.3483  53.8670  1.00273680  9538
TJS-5                   
1 44978U 20002A   22215.45165788 -.00000335  00000+0  00000+0 0  9992
2 44978   0.3435 282.1415 0001661 218.0374  81.9746  1.00267937  9516
GSAT-30                 
1 45026U 20005A   22216.44701865 -.00000158  00000+0  00000+0 0  9995
2 45026   0.0703 274.3883 0004712 186.3804  96.1536  1.00272020  9348
EUTELSAT KONNECT        
1 45027U 20005B   22216.56993885  .00000056  00000+0  00000+0 0  9990
2 45027   0.0463  94.7699 0000213 265.3550 165.3516  1.00268870 10166
JCSAT-17                
1 45245U 20013A   22216.21368694 -.00000306  00000+0  00000+0 0  9996
2 45245   6.1094 345.4755 0004206 149.5826  30.6303  1.00272210  9067
GEO-KOMPSAT-2B          
1 45246U 20013B   22216.24495692 -.00000337  00000+0  00000+0 0  9993
2 45246   0.0501 266.3170 0000840 310.3795 312.5022  1.00268932  9111
BEIDOU-3 G2             
1 45344U 20017A   22216.44701865 -.00000133  00000+0  00000+0 0  9994
2 45344   2.0382 354.3884 0005091 128.8570  70.7305  1.00271436  9092
AEHF-6 (USA 298)        
1 45465U 20022B   22215.78129528 -.00000289  00000+0  00000+0 0  9992
2 45465   5.8372 302.4770 0043726   0.9310  67.8237  1.00266158  8841
BEIDOU-3 G3             
1 45807U 20040A   22216.17271605 -.00000346  00000+0  00000+0 0  9994
2 45807   1.3372 304.5147 0006666 333.9126 206.9692  1.00276575  7900
APSTAR 6D               
1 45863U 20045A   22216.03050774 -.00000311  00000+0  00000+0 0  9990
2 45863   0.0162  84.1586 0002589  35.8725 337.4955  1.00271581  7696
KOREASAT 116            
1 45920U 20048A   22216.24260251 -.00000355  00000+0  00000+0 0  9991
2 45920   0.0156  72.0177 0001110  54.1091  30.2163  1.00270245  7475
EXPRESS 103             
1 45985U 20053A   22216.17827302 -.00000274  00000+0  00000+0 0  9996
2 45985   0.0479 258.7291 0000389  46.1434 168.5213  1.00272295  7482
EXPRESS 80              
1 45986U 20053B   22215.90986915 -.00000129  00000+0  00000+0 0  9992
2 45986   0.0424 252.8848 0000637  16.7452  90.3621  1.00272680  7477
BSAT-4B                 
1 46112U 20056A   22216.17271605 -.00000343  00000+0  00000+0 0  9998
2 46112   0.0373 146.2420 0004175 348.3294 350.1518  1.00271727  7229
MEV-2                   
1 46113U 20056B   22216.07569946 -.00000003  00000+0  00000+0 0  9999
2 46113   0.0512 261.8319 0001046 241.6760 195.3841  1.00272336 66458
GALAXY 30 (G-30)        
1 46114U 20056C   22216.55966514  .00000045  00000+0  00000+0 0  9990
2 46114   0.0079 264.7716 0002337 232.1163 252.6817  1.00270791  7128
GAOFEN 13               
1 46610U 20071A   22215.95674410 -.00000355  00000+0  00000+0 0  9997
2 46610   0.3786 264.2334 0003398 284.6031 225.9226  1.00272960  6735
TIANTONG-1 2            
1 46916U 20082A   22216.24434652 -.00000345  00000+0  00000+0 0  9992
2 46916   4.0170 295.1089 0002761 198.7145  31.8722  1.00272152  6486
LUCAS (JDRS-1)          
1 47202U 20089A   22216.39354985 -.00000228  00000+0  00000+0 0  9994
2 47202   0.0138 111.9850 0002310 341.8344  91.5585  1.00269887  6254
SXM-7                   
1 47240U 20096A   22216.57128094 -.00000015  00000+0  00000+0 0  9998
2 47240   0.0275 299.3532 0000878  32.8815  71.2206  1.00270788  6148
CMS-01                  
1 47256U 20099A   22216.44701865 -.00000158  00000+0  00000+0 0  9995
2 47256   0.0694 102.3417 0004505 159.6334 294.9685  1.00271883  6030
TURKSAT 5A              
1 47306U 21001A   22216.55326992  .00000161  00000+0  00000+0 0  9994
2 47306   0.0152 101.8144 0000077 359.0548  82.3113  1.00272196  5817
TIANTONG-1 3            
1 47321U 21003A   22216.58660416 -.00000143  00000+0  00000+0 0  9999
2 47321   4.3261 308.1760 0003870 179.9915 117.6154  1.00270373  5800
TJS-6                   
1 47613U 21010A   22216.49356163  .00000049  00000+0  00000+0 0  9996
2 47613   0.3158  91.6355 0001473  90.1360 127.4228  1.00269637  5660
SBIRS GEO-5 (USA 315)   
1 48618U 21042A   22216.51058427  .00000127  00000+0  00000+0 0  9999
2 48618   7.2700 326.1150 0002758 150.4943  41.1536  1.00272202  4595
FENGYUN 4B              
1 48808U 21047A   22216.43382704 -.00000316  00000+0  00000+0 0  9995
2 48808   0.0858  81.3473 0002157 287.3390 233.2960  1.00281012  4402
SXM-8                   
1 48838U 21049A   22216.48948177 -.00000197  00000+0  00000+0 0  9994
2 48838   0.0406 279.2103 0001482  86.1134  38.7144  1.00271261  4444
TIANLIAN 1-05           
1 49011U 21063A   22216.50979946  .00000117  00000+0  00000+0 0  9996
2 49011   2.0507 282.6093 0003986 225.2912   5.4440  1.00272006  3918
STAR ONE D2             
1 49055U 21069A   22216.32548407 -.00000257  00000+0  00000+0 0  9990
2 49055   0.0121 102.5107 0002549  47.8288 209.6749  1.00272889  3740
EUTELSAT QUANTUM        
1 49056U 21069B   22216.54771552  .00000133  00000+0  00000+0 0  9996
2 49056   0.0405 279.0126 0001790 202.3296  76.6146  1.00269667  3766
CHINASAT 2E (ZX 2E)     
1 49062U 21071A   22215.30622523 -.00000284  00000+0  00000+0 0  9990
2 49062   0.0329 176.3326 0000103 285.9407  57.8925  1.00272256  3873
TJS-7                   
1 49115U 21077A   22216.63867067 -.00000222  00000+0  00000+0 0  9998
2 49115   0.1913 260.0610 0000526 191.2926 238.2566  1.00274602  3641
CHINASAT 9B             
1 49125U 21080A   22216.43452293 -.00000305  00000+0  00000+0 0  9994
2 49125   0.0292 115.4608 0003460  28.9573  66.3486  1.00268124  3479
SHIJIAN-21 (SJ-21)      
1 49330U 21094A   22216.61845764 -.00000394  00000+0  00000+0 0  9994
2 49330   8.5378  49.7276 0110410  16.0649 231.6529  1.00418028  3094
SYRACUSE 4A             
1 49333U 21095B   22216.54771552  .00000142  00000+0  00000+0 0  9993
2 49333   0.0189  87.4223 0001945  57.3906  50.9514  1.00270224  3811
QZS-1R                  
1 49336U 21096A   22215.59800451 -.00000270  00000+0  00000+0 0  9995
2 49336  34.5524 101.0858 0758826 272.0914 284.8958  1.00241856  2849
CHINASAT 1D (ZX 1D)     
1 49505U 21114A   22216.43382704 -.00000329  00000+0  00000+0 0  9999
2 49505   1.3563 278.6250 0002532 208.7131 111.9338  1.00268121  2657
STPSAT-6                
1 49817U 21118A   22214.90569265 -.00000039  00000+0  00000+0 0  9996
2 49817   0.0191 151.6033 0000439 355.8210  18.4303  1.00271904  2387
LDPE-1                  
1 49818U 21118B   22216.17271605 -.00000292  00000+0  00000+0 0  9997
2 49818   0.4876 101.4757 0001828  99.1143 285.2247  1.01202389  2422
EXPRESS AMU-7           
1 50001U 21123A   22215.72977049 -.00000233  00000+0  00000+0 0  9999
2 50001   0.0505 264.0516 0001611 292.8599 163.0823  1.00284599  2389
EXPRESS AMU-3           
1 50002U 21123B   22215.84616739 -.00000315  00000+0  00000+0 0  9990
2 50002   0.0476 254.3050 0000781  39.1269  66.5591  1.00273719  2342
